[{"OBJECT_NAME":"SEEDS II (CO-66)","OBJECT_ID":"2008-021J","EPOCH":"2026-03-09T22:06:22.421376","MEAN_MOTION":15.29097236,"ECCENTRICITY":0.00014475,"INCLINATION":97.7519,"RA_OF_ASC_NODE":62.3611,"ARG_OF_PERICENTER":359.2618,"MEAN_ANOMALY":0.8619,"EPHEMERIS_TYPE":0,"CLASSIFICATION_TYPE":"U","NORAD_CAT_ID":32791,"ELEMENT_SET_NO":999,"REV_AT_EPOCH":97210,"BSTAR":0.00084213052,"MEAN_MOTION_DOT":0.00023758,"MEAN_MOTION_DDOT":0},{"OBJECT_NAME":"STARLINK-32752","OBJECT_ID":"2025-006P","EPOCH":"2026-03-09T23:08:24.894528","MEAN_MOTION":15.27630395,"ECCENTRICITY":0.00010853,"INCLINATION":42.9964,"RA_OF_ASC_NODE":291.1118,"ARG_OF_PERICENTER":289.4209,"MEAN_ANOMALY":70.6525,"EPHEMERIS_TYPE":0,"CLASSIFICATION_TYPE":"U","NORAD_CAT_ID":62567,"ELEMENT_SET_NO":999,"REV_AT_EPOCH":6490,"BSTAR":0.0013186973,"MEAN_MOTION_DOT":0.0003626,"MEAN_MOTION_DDOT":0}]
